start=new Date('2021-11-09T00:00:00.000Z').valueOf();
sats=[{"OBJECT_TYPE":"PAYLOAD","DECAY_DATE":null,"MEAN_MOTION_DOT":"0.00000958","ECCENTRICITY":"0.00015760","FILE":"3209620","BSTAR":"0.00008318600000","SITE":"AFETR","CLASSIFICATION_TYPE":"U","MEAN_ANOMALY":"272.7946","TLE_LINE1":"1 47793U 21018G   21312.80808348  .00000958  00000-0  83186-4 0  9992","LAUNCH_DATE":"2021-03-11","ELEMENT_SET_NO":"999","SEMIMAJOR_AXIS":"6925.351","REF_FRAME":"TEME","REV_AT_EPOCH":"3844","MEAN_MOTION":"15.06399295","ARG_OF_PERICENTER":"87.3224","CENTER_NAME":"EARTH","MEAN_MOTION_DDOT":"0.0000000000000","GP_ID":"189302676","MEAN_ELEMENT_THEORY":"SGP4","OBJECT_ID":"2021-018G","RA_OF_ASC_NODE":"132.9514","RCS_SIZE":"LARGE","TLE_LINE2":"2 47793  53.0547 132.9514 0001576  87.3224 272.7946 15.06399295 38441","PERIOD":"95.592","OBJECT_NAME":"STARLINK-2338","APOAPSIS":"548.307","INCLINATION":"53.0547","EPHEMERIS_TYPE":"0","TIME_SYSTEM":"UTC","NORAD_CAT_ID":"47793","EPOCH":"2021-11-08T19:23:38.412672","COUNTRY_CODE":"US","PERIAPSIS":"546.124"},{"TLE_LINE2":"2 47794  53.0564 132.9500 0001651  80.4664 279.6511 15.06385149 38450","PERIOD":"95.593","OBJECT_NAME":"STARLINK-2341","RA_OF_ASC_NODE":"132.9500","RCS_SIZE":"LARGE","TIME_SYSTEM":"UTC","EPOCH":"2021-11-08T19:28:57.557856","NORAD_CAT_ID":"47794","PERIAPSIS":"546.116","COUNTRY_CODE":"US","APOAPSIS":"548.402","EPHEMERIS_TYPE":"0","INCLINATION":"53.0564","REF_FRAME":"TEME","SEMIMAJOR_AXIS":"6925.394","MEAN_MOTION_DDOT":"0.0000000000000","CENTER_NAME":"EARTH","MEAN_ELEMENT_THEORY":"SGP4","GP_ID":"189302926","OBJECT_ID":"2021-018H","REV_AT_EPOCH":"3845","MEAN_MOTION":"15.06385149","ARG_OF_PERICENTER":"80.4664","MEAN_ANOMALY":"279.6511","CLASSIFICATION_TYPE":"U","ELEMENT_SET_NO":"999","TLE_LINE1":"1 47794U 21018H   21312.81177729  .00002755  00000-0  20386-3 0  9995","LAUNCH_DATE":"2021-03-11","DECAY_DATE":null,"OBJECT_TYPE":"PAYLOAD","BSTAR":"0.00020386000000","SITE":"AFETR","MEAN_MOTION_DOT":"0.00002755","ECCENTRICITY":"0.00016510","FILE":"3209620"},{"REF_FRAME":"TEME","SEMIMAJOR_AXIS":"6925.485","OBJECT_ID":"2021-018J","MEAN_ELEMENT_THEORY":"SGP4","GP_ID":"189303678","CENTER_NAME":"EARTH","MEAN_MOTION_DDOT":"0.0000000000000","MEAN_MOTION":"15.06355409","ARG_OF_PERICENTER":"87.1608","REV_AT_EPOCH":"3851","OBJECT_NAME":"STARLINK-2347","PERIOD":"95.595","TLE_LINE2":"2 47795  53.0551 132.6901 0001857  87.1608 272.9594 15.06355409 38519","RCS_SIZE":"LARGE","RA_OF_ASC_NODE":"132.6901","COUNTRY_CODE":"US","PERIAPSIS":"546.064","NORAD_CAT_ID":"47795","TIME_SYSTEM":"UTC","EPOCH":"2021-11-08T20:48:37.700064","EPHEMERIS_TYPE":"0","INCLINATION":"53.0551","APOAPSIS":"548.636","DECAY_DATE":null,"OBJECT_TYPE":"PAYLOAD","BSTAR":"-0.00014420000000","SITE":"AFETR","ECCENTRICITY":"0.00018570","FILE":"3209620","MEAN_MOTION_DOT":"-0.00002426","MEAN_ANOMALY":"272.9594","CLASSIFICATION_TYPE":"U","ELEMENT_SET_NO":"999","LAUNCH_DATE":"2021-03-11","TLE_LINE1":"1 47795U 21018J   21312.86710301 -.00002426  00000-0 -14420-3 0  9999"},{"PERIOD":"95.594","OBJECT_NAME":"STARLINK-2373","TLE_LINE2":"2 47796  53.0561 134.1218 0001479  77.4725 282.6429 15.06372704 38412","RCS_SIZE":"LARGE","RA_OF_ASC_NODE":"134.1218","COUNTRY_CODE":"US","PERIAPSIS":"546.273","TIME_SYSTEM":"UTC","NORAD_CAT_ID":"47796","EPOCH":"2021-11-08T13:12:07.378560","APOAPSIS":"548.321","EPHEMERIS_TYPE":"0","INCLINATION":"53.0561","REF_FRAME":"TEME","SEMIMAJOR_AXIS":"6925.432","OBJECT_ID":"2021-018K","CENTER_NAME":"EARTH","MEAN_MOTION_DDOT":"0.0000000000000","MEAN_ELEMENT_THEORY":"SGP4","GP_ID":"189270940","ARG_OF_PERICENTER":"77.4725","MEAN_MOTION":"15.06372704","REV_AT_EPOCH":"3841","MEAN_ANOMALY":"282.6429","CLASSIFICATION_TYPE":"U","ELEMENT_SET_NO":"999","LAUNCH_DATE":"2021-03-11","TLE_LINE1":"1 47796U 21018K   21312.55008540  .00001259  00000-0  10347-3 0  9996","DECAY_DATE":null,"OBJECT_TYPE":"PAYLOAD","SITE":"AFETR","BSTAR":"0.00010347000000","ECCENTRICITY":"0.00014790","FILE":"3209238","MEAN_MOTION_DOT":"0.00001259"},{"INCLINATION":"53.0525","EPHEMERIS_TYPE":"0","APOAPSIS":"548.394","COUNTRY_CODE":"US","PERIAPSIS":"546.046","TIME_SYSTEM":"UTC","EPOCH":"2021-11-08T20:26:41.002080","NORAD_CAT_ID":"47797","RCS_SIZE":"MEDIUM","RA_OF_ASC_NODE":"157.7514","OBJECT_NAME":"STARLINK-2377","PERIOD":"95.592","TLE_LINE2":"2 47797  53.0525 157.7514 0001695  70.6275 289.4898 15.06397892 38104","ARG_OF_PERICENTER":"70.6275","MEAN_MOTION":"15.06397892","REV_AT_EPOCH":"3810","OBJECT_ID":"2021-018L","GP_ID":"189302177","MEAN_ELEMENT_THEORY":"SGP4","CENTER_NAME":"EARTH","MEAN_MOTION_DDOT":"0.0000000000000","SEMIMAJOR_AXIS":"6925.355","REF_FRAME":"TEME","LAUNCH_DATE":"2021-03-11","TLE_LINE1":"1 47797U 21018L   21312.85186345  .00004430  00000-0  31615-3 0  9995","ELEMENT_SET_NO":"999","CLASSIFICATION_TYPE":"U","MEAN_ANOMALY":"289.4898","FILE":"3209620","ECCENTRICITY":"0.00016950","MEAN_MOTION_DOT":"0.00004430","SITE":"AFETR","BSTAR":"0.00031615000000","OBJECT_TYPE":"PAYLOAD","DECAY_DATE":null},{"REF_FRAME":"TEME","SEMIMAJOR_AXIS":"6925.374","MEAN_ELEMENT_THEORY":"SGP4","GP_ID":"189302427","CENTER_NAME":"EARTH","MEAN_MOTION_DDOT":"0.0000000000000","OBJECT_ID":"2021-018M","MEAN_MOTION":"15.06391655","ARG_OF_PERICENTER":"86.3488","REV_AT_EPOCH":"3844","TLE_LINE2":"2 47798  53.0549 133.1670 0001419  86.3488 273.7663 15.06391655 38440","OBJECT_NAME":"STARLINK-2379","PERIOD":"95.593","RA_OF_ASC_NODE":"133.1670","RCS_SIZE":"LARGE","TIME_SYSTEM":"UTC","EPOCH":"2021-11-08T18:14:39.085440","NORAD_CAT_ID":"47798","PERIAPSIS":"546.256","COUNTRY_CODE":"US","INCLINATION":"53.0549","EPHEMERIS_TYPE":"0","APOAPSIS":"548.222","DECAY_DATE":null,"OBJECT_TYPE":"PAYLOAD","BSTAR":"0.00017178000000","SITE":"AFETR","MEAN_MOTION_DOT":"0.00002278","ECCENTRICITY":"0.00014190","FILE":"3209620","MEAN_ANOMALY":"273.7663","CLASSIFICATION_TYPE":"U","ELEMENT_SET_NO":"999","TLE_LINE1":"1 47798U 21018M   21312.76017460  .00002278  00000-0  17178-3 0  9993","LAUNCH_DATE":"2021-03-11"},{"RCS_SIZE":"LARGE","RA_OF_ASC_NODE":"133.7939","PERIOD":"95.593","OBJECT_NAME":"STARLINK-2380","TLE_LINE2":"2 47799  53.0564 133.7939 0001409  83.8951 276.2198 15.06388132 38412","APOAPSIS":"548.226","INCLINATION":"53.0564","EPHEMERIS_TYPE":"0","PERIAPSIS":"546.274","COUNTRY_CODE":"US","NORAD_CAT_ID":"47799","TIME_SYSTEM":"UTC","EPOCH":"2021-11-08T14:58:15.940704","SEMIMAJOR_AXIS":"6925.385","REF_FRAME":"TEME","MEAN_MOTION":"15.06388132","REV_AT_EPOCH":"3841","ARG_OF_PERICENTER":"83.8951","OBJECT_ID":"2021-018N","CENTER_NAME":"EARTH","MEAN_MOTION_DDOT":"0.0000000000000","MEAN_ELEMENT_THEORY":"SGP4","GP_ID":"189303179","CLASSIFICATION_TYPE":"U","MEAN_ANOMALY":"276.2198","LAUNCH_DATE":"2021-03-11","TLE_LINE1":"1 47799U 21018N   21312.62379561  .00003308  00000-0  24097-3 0  9995","ELEMENT_SET_NO":"999","OBJECT_TYPE":"PAYLOAD","DECAY_DATE":null,"ECCENTRICITY":"0.00014090","FILE":"3209620","MEAN_MOTION_DOT":"0.00003308","BSTAR":"0.00024097000000","SITE":"AFETR"},{"BSTAR":"-0.00005919700000","SITE":"AFETR","FILE":"3209620","ECCENTRICITY":"0.00017000","MEAN_MOTION_DOT":"-0.00001163","DECAY_DATE":null,"OBJECT_TYPE":"PAYLOAD","ELEMENT_SET_NO":"999","LAUNCH_DATE":"2021-03-11","TLE_LINE1":"1 47800U 21018P   21312.77858872 -.00001163  00000-0 -59197-4 0  9990","MEAN_ANOMALY":"279.7134","CLASSIFICATION_TYPE":"U","OBJECT_ID":"2021-018P","MEAN_MOTION_DDOT":"0.0000000000000","CENTER_NAME":"EARTH","GP_ID":"189303929","MEAN_ELEMENT_THEORY":"SGP4","REV_AT_EPOCH":"3844","MEAN_MOTION":"15.06396159","ARG_OF_PERICENTER":"80.4047","REF_FRAME":"TEME","SEMIMAJOR_AXIS":"6925.360","PERIAPSIS":"546.048","COUNTRY_CODE":"US","TIME_SYSTEM":"UTC","EPOCH":"2021-11-08T18:41:10.065408","NORAD_CAT_ID":"47800","APOAPSIS":"548.403","EPHEMERIS_TYPE":"0","INCLINATION":"53.0542","PERIOD":"95.592","OBJECT_NAME":"STARLINK-2381","TLE_LINE2":"2 47800  53.0542 133.0893 0001700  80.4047 279.7134 15.06396159 38445","RCS_SIZE":"LARGE","RA_OF_ASC_NODE":"133.0893"},{"DECAY_DATE":null,"OBJECT_TYPE":"PAYLOAD","BSTAR":"0.00020349000000","SITE":"AFETR","MEAN_MOTION_DOT":"0.00002750","ECCENTRICITY":"0.00017670","FILE":"3209620","MEAN_ANOMALY":"284.8180","CLASSIFICATION_TYPE":"U","ELEMENT_SET_NO":"999","TLE_LINE1":"1 47801U 21018Q   21312.80115536  .00002750  00000-0  20349-3 0  9995","LAUNCH_DATE":"2021-03-11","REF_FRAME":"TEME","SEMIMAJOR_AXIS":"6925.357","MEAN_ELEMENT_THEORY":"SGP4","GP_ID":"189302677","MEAN_MOTION_DDOT":"0.0000000000000","CENTER_NAME":"EARTH","OBJECT_ID":"2021-018Q","REV_AT_EPOCH":"3838","MEAN_MOTION":"15.06397166","ARG_OF_PERICENTER":"75.3005","TLE_LINE2":"2 47801  53.0551 137.9836 0001767  75.3005 284.8180 15.06397166 38386","OBJECT_NAME":"STARLINK-2382","PERIOD":"95.592","RA_OF_ASC_NODE":"137.9836","RCS_SIZE":"LARGE","TIME_SYSTEM":"UTC","NORAD_CAT_ID":"47801","EPOCH":"2021-11-08T19:13:39.823104","COUNTRY_CODE":"US","PERIAPSIS":"545.999","INCLINATION":"53.0551","EPHEMERIS_TYPE":"0","APOAPSIS":"548.446"},{"RCS_SIZE":"LARGE","RA_OF_ASC_NODE":"157.7881","PERIOD":"95.593","OBJECT_NAME":"STARLINK-2383","TLE_LINE2":"2 47802  53.0470 157.7881 0005470  84.4338 275.7275 15.06383506 38110","APOAPSIS":"551.052","EPHEMERIS_TYPE":"0","INCLINATION":"53.0470","COUNTRY_CODE":"US","PERIAPSIS":"543.476","EPOCH":"2021-11-08T20:37:18.431040","NORAD_CAT_ID":"47802","TIME_SYSTEM":"UTC","SEMIMAJOR_AXIS":"6925.399","REF_FRAME":"TEME","REV_AT_EPOCH":"3811","MEAN_MOTION":"15.06383506","ARG_OF_PERICENTER":"84.4338","OBJECT_ID":"2021-018R","MEAN_MOTION_DDOT":"0.0000000000000","CENTER_NAME":"EARTH","GP_ID":"189302927","MEAN_ELEMENT_THEORY":"SGP4","CLASSIFICATION_TYPE":"U","MEAN_ANOMALY":"275.7275","LAUNCH_DATE":"2021-03-11","TLE_LINE1":"1 47802U 21018R   21312.85924110  .00005549  00000-0  39131-3 0  9995","ELEMENT_SET_NO":"999","OBJECT_TYPE":"PAYLOAD","DECAY_DATE":null,"ECCENTRICITY":"0.00054700","FILE":"3209620","MEAN_MOTION_DOT":"0.00005549","SITE":"AFETR","BSTAR":"0.00039131000000"}];
